STARLINK-1048           
1 44753U 19074AS  26068.52133266  .00088315  00000+0  13673-2 0  9990
2 44753  53.0520 169.6561 0000171  86.0579 274.0450 15.53328855348976
STARLINK-4720           
1 53800U 22111AD  26068.71944177  .00032713  00000+0  52142-3 0  9997
2 53800  53.2110 239.7837 0003391 149.7852 210.3356 15.52966516194168
